[{"OBJECT_NAME":"STARLINK-3255","OBJECT_ID":"2021-125AX","EPOCH":"2026-03-10T00:00:02.999808","MEAN_MOTION":15.78211819,"ECCENTRICITY":0.00041673,"INCLINATION":53.1953,"RA_OF_ASC_NODE":139.3803,"ARG_OF_PERICENTER":23.4963,"MEAN_ANOMALY":123.5744,"EPHEMERIS_TYPE":0,"CLASSIFICATION_TYPE":"U","NORAD_CAT_ID":50201,"ELEMENT_SET_NO":999,"REV_AT_EPOCH":593,"BSTAR":0.00095456627,"MEAN_MOTION_DOT":0.00169642,"MEAN_MOTION_DDOT":0},{"OBJECT_NAME":"STARLINK-36817","OBJECT_ID":"2026-035D","EPOCH":"2026-03-09T22:00:01.999584","MEAN_MOTION":15.87100662,"ECCENTRICITY":0.00011236,"INCLINATION":97.2719,"RA_OF_ASC_NODE":1.2624,"ARG_OF_PERICENTER":87.7793,"MEAN_ANOMALY":329.9241,"EPHEMERIS_TYPE":0,"CLASSIFICATION_TYPE":"U","NORAD_CAT_ID":67882,"ELEMENT_SET_NO":999,"REV_AT_EPOCH":379,"BSTAR":-0.0053031054,"MEAN_MOTION_DOT":-0.01217765,"MEAN_MOTION_DDOT":0}]
